[{"OBJECT_NAME":"STARLINK-4260","OBJECT_ID":"2022-076A","EPOCH":"2026-03-09T10:42:58.474368","MEAN_MOTION":15.08846027,"ECCENTRICITY":0.00012979,"INCLINATION":53.2165,"RA_OF_ASC_NODE":95.2121,"ARG_OF_PERICENTER":100.1484,"MEAN_ANOMALY":259.9654,"EPHEMERIS_TYPE":0,"CLASSIFICATION_TYPE":"U","NORAD_CAT_ID":52986,"ELEMENT_SET_NO":999,"REV_AT_EPOCH":20280,"BSTAR":0.00011157906,"MEAN_MOTION_DOT":1.489e-5,"MEAN_MOTION_DDOT":0},{"OBJECT_NAME":"DISKSAT C","OBJECT_ID":"2025-305A","EPOCH":"2026-03-09T19:16:32.318976","MEAN_MOTION":15.07852977,"ECCENTRICITY":0.00045341,"INCLINATION":45.0017,"RA_OF_ASC_NODE":250.1278,"ARG_OF_PERICENTER":310.7706,"MEAN_ANOMALY":49.2776,"EPHEMERIS_TYPE":0,"CLASSIFICATION_TYPE":"U","NORAD_CAT_ID":67219,"ELEMENT_SET_NO":999,"REV_AT_EPOCH":1231,"BSTAR":0.00075564202,"MEAN_MOTION_DOT":0.00011541,"MEAN_MOTION_DDOT":0}]
